[{"OBJECT_NAME":"STARLINK-3818","OBJECT_ID":"2022-045K","EPOCH":"2026-03-09T15:44:21.483744","MEAN_MOTION":15.08839649,"ECCENTRICITY":0.0001086,"INCLINATION":53.2175,"RA_OF_ASC_NODE":199.2718,"ARG_OF_PERICENTER":85.5565,"MEAN_ANOMALY":274.5551,"EPHEMERIS_TYPE":0,"CLASSIFICATION_TYPE":"U","NORAD_CAT_ID":52340,"ELEMENT_SET_NO":999,"REV_AT_EPOCH":21576,"BSTAR":1.098875e-5,"MEAN_MOTION_DOT":-1.13e-6,"MEAN_MOTION_DDOT":0},{"OBJECT_NAME":"COSMOS 2535 DEB","OBJECT_ID":"2019-039H","EPOCH":"2026-03-09T01:37:49.505376","MEAN_MOTION":15.12536261,"ECCENTRICITY":0.00199509,"INCLINATION":97.5365,"RA_OF_ASC_NODE":108.6978,"ARG_OF_PERICENTER":50.248,"MEAN_ANOMALY":310.0505,"EPHEMERIS_TYPE":0,"CLASSIFICATION_TYPE":"U","NORAD_CAT_ID":44631,"ELEMENT_SET_NO":999,"REV_AT_EPOCH":34980,"BSTAR":0.00071319108,"MEAN_MOTION_DOT":0.00012434,"MEAN_MOTION_DDOT":0}]
